STARLINK-37511          
1 69512U 26133E   26169.25002315 -.01651511  89306-3 -21632-2 0  9997
2 69512  53.1596 317.4127 0000652  66.6185  25.7679 16.06353796  2031
STARLINK-37552          
1 69513U 26133F   26169.25002315 -.01623817  87185-3 -20479-2 0  9997
2 69513  53.1592 317.4005 0000671  61.5837  36.7491 16.06954652  2034
STARLINK-37607          
1 69514U 26133G   26169.25002315 -.01610413  86056-3 -20065-2 0  9993
2 69514  53.1594 317.3943 0000699  68.1193  32.9248 16.07146115  2031
STARLINK-37232          
1 69515U 26133H   26169.25002315 -.01597982  85122-3 -19560-2 0  9990
2 69515  53.1593 317.3886 0000549  85.3326  18.6302 16.07425869  2038
STARLINK-37323          
1 69516U 26133J   26169.25002315 -.01581958  83820-3 -19038-2 0  9990
2 69516  53.1593 317.3823 0000527  84.9212  21.9311 16.07690706  2036
STARLINK-37357          
1 69517U 26133K   26169.25002315 -.01579290  83735-3 -18803-2 0  9991
2 69517  53.1592 317.3767 0000516  72.4389  37.0347 16.07859484  2035
STARLINK-37408          
1 69518U 26133L   26169.25002315 -.01565960  82681-3 -18354-2 0  9991
2 69518  53.1593 317.3710 0000489  81.2569  31.0485 16.08103936  2034
STARLINK-37570          
1 69519U 26133M   26169.25002315 -.01544344  81235-3 -17365-2 0  9990
2 69519  53.1595 317.3582 0000652 101.4812  16.8356 16.08747256  2039
STARLINK-37510          
1 69520U 26133N   26169.25002315 -.01546371  81099-3 -17754-2 0  9994
2 69520  53.1591 317.3652 0000596  86.5794  28.7463 16.08423705  2035
STARLINK-37586          
1 69521U 26133P   26169.25002315 -.01499524  77350-3 -16386-2 0  9997
2 69521  53.1593 317.3469 0000513  92.5377  31.3511 16.09182821  2033
STARLINK-37379          
1 69522U 26133Q   26169.25002315 -.01482483  75899-3 -16016-2 0  9990
2 69522  53.1593 317.3411 0000597  93.8152  32.7375 16.09355804  2089
STARLINK-37429          
1 69523U 26133R   26169.25002315 -.01473094  75178-3 -15736-2 0  9997
2 69523  53.1592 317.3356 0000679  95.1943  34.0009 16.09527382  2082
STARLINK-37352          
1 69524U 26133S   26169.25002315 -.01448530  73164-3 -15165-2 0  9994
2 69524  53.1593 317.3295 0000514 109.5467  22.6148 16.09831616  2080
STARLINK-37490          
1 69525U 26133T   26169.25002315 -.01418589  70933-3 -14285-2 0  9999
2 69525  53.1592 317.3173 0000543  96.3145  41.7434 16.10418162  2082
STARLINK-37438          
1 69526U 26133U   26169.25002315 -.01438727  72486-3 -14815-2 0  9990
2 69526  53.1593 317.3242 0000904  96.2831  38.7175 16.10082162  2088
STARLINK-37484          
1 69527U 26133V   26169.25002315 -.01404829  69865-3 -13944-2 0  9996
2 69527  53.1592 317.3096 0000551  96.6563  45.1052 16.10633880  2084
STARLINK-37523          
1 69528U 26133W   26169.25002315 -.01387268  68431-3 -13598-2 0  9997
2 69528  53.1594 317.3040 0000512 107.3153  37.1181 16.10820734  2088
STARLINK-37369          
1 69529U 26133X   26169.25002315 -.01379269  67877-3 -13345-2 0  9993
2 69529  53.1591 317.2983 0000716  99.5138  47.6256 16.11014179  2080
STARLINK-37670          
1 69530U 26133Y   26169.25002315 -.01346957  65311-3 -12694-2 0  9990
2 69530  53.1591 317.2921 0001027 102.8162  47.5147 16.11400748  2084
STARLINK-37897          
1 69531U 26133Z   26169.25002315 -.01340861  64994-3 -12413-2 0  9994
2 69531  53.1591 317.2835 0000912 108.6341  45.6060 16.11665688  2038
STARLINK-37933          
1 69532U 26133AA  26169.25002315 -.01306956  62330-3 -11779-2 0  9998
2 69532  53.1591 317.2765 0000822 102.7888  54.6737 16.12057853  2033
STARLINK-37890          
1 69533U 26133AB  26169.25002315 -.01289928  61023-3 -11454-2 0  9996
2 69533  53.1593 317.2707 0000799 101.6930  58.5269 16.12273748  2037
STARLINK-37407          
1 69534U 26133AC  26169.25002315 -.01267883  59355-3 -11033-2 0  9991
2 69534  53.1591 317.2613 0000937 107.2734  57.2869 16.12566279  2081
STARLINK-37888          
1 69535U 26133AD  26169.25002315 -.01252340  58266-3 -10671-2 0  9991
2 69535  53.1593 317.2550 0000669  99.6198  67.9113 16.12870940  2032
STARLINK-37889          
1 69536U 26133AE  26169.25002315 -.01513593  78438-3 -16823-2 0  9990
2 69536  53.1607 317.3541 0000677  78.9672  42.0551 16.08922254  2037
2026-134A               
1 69538U 26134A   26167.72437802  .00000587  00000+0  41008-4 0  9998
2 69538  97.7003 237.8242 0014154 273.9919  85.9691 15.09200639   241
2026-134B               
1 69539U 26134B   26167.72421602  .00001264  00000+0  83138-4 0  9993
2 69539  97.6974 237.8233 0014487 276.4553  83.5026 15.09360646   239
2026-134C               
1 69540U 26134C   26167.72418662  .00001265  00000+0  83187-4 0  9992
2 69540  97.6988 237.8231 0013786 277.2768  82.6893 15.09388935   235
