OBJECT_NAME,OBJECT_ID,EPOCH,MEAN_MOTION,ECCENTRICITY,INCLINATION,RA_OF_ASC_NODE,ARG_OF_PERICENTER,MEAN_ANOMALY,EPHEMERIS_TYPE,CLASSIFICATION_TYPE,NORAD_CAT_ID,ELEMENT_SET_NO,REV_AT_EPOCH,BSTAR,MEAN_MOTION_DOT,MEAN_MOTION_DDOT
STARLINK-37511,2026-133E,2026-06-18T06:00:02.000160,16.06353796,.00006529,53.1596,317.4127,66.6185,25.7679,0,U,69512,999,203,-.21631582E-2,-.1651511E-1,.89306395E-3
STARLINK-37552,2026-133F,2026-06-18T06:00:02.000160,16.06954652,.00006711,53.1592,317.4005,61.5837,36.7491,0,U,69513,999,203,-.20479366E-2,-.1623817E-1,.87184816E-3
STARLINK-37607,2026-133G,2026-06-18T06:00:02.000160,16.07146115,.00006997,53.1594,317.3943,68.1193,32.9248,0,U,69514,999,203,-.20064769E-2,-.1610413E-1,.86055846E-3
STARLINK-37232,2026-133H,2026-06-18T06:00:02.000160,16.07425869,.00005494,53.1593,317.3886,85.3326,18.6302,0,U,69515,999,203,-.19559513E-2,-.1597982E-1,.85121594E-3
STARLINK-37323,2026-133J,2026-06-18T06:00:02.000160,16.07690706,.00005274,53.1593,317.3823,84.9212,21.9311,0,U,69516,999,203,-.19038459E-2,-.1581958E-1,.83820099E-3
STARLINK-37357,2026-133K,2026-06-18T06:00:02.000160,16.07859484,.00005162,53.1592,317.3767,72.4389,37.0347,0,U,69517,999,203,-.18803075E-2,-.157929E-1,.83734666E-3
STARLINK-37408,2026-133L,2026-06-18T06:00:02.000160,16.08103936,.00004891,53.1593,317.3710,81.2569,31.0485,0,U,69518,999,203,-.18353871E-2,-.156596E-1,.82681249E-3
STARLINK-37570,2026-133M,2026-06-18T06:00:02.000160,16.08747256,.00006527,53.1595,317.3582,101.4812,16.8356,0,U,69519,999,203,-.17364769E-2,-.1544344E-1,.81234635E-3
STARLINK-37510,2026-133N,2026-06-18T06:00:02.000160,16.08423705,.00005962,53.1591,317.3652,86.5794,28.7463,0,U,69520,999,203,-.17753679E-2,-.1546371E-1,.81099486E-3
STARLINK-37586,2026-133P,2026-06-18T06:00:02.000160,16.09182821,.00005136,53.1593,317.3469,92.5377,31.3511,0,U,69521,999,203,-.16385777E-2,-.1499524E-1,.77349628E-3
STARLINK-37379,2026-133Q,2026-06-18T06:00:02.000160,16.09355804,.00005975,53.1593,317.3411,93.8152,32.7375,0,U,69522,999,208,-.16015801E-2,-.1482483E-1,.75899411E-3
STARLINK-37429,2026-133R,2026-06-18T06:00:02.000160,16.09527382,.00006798,53.1592,317.3356,95.1943,34.0009,0,U,69523,999,208,-.15735915E-2,-.1473094E-1,.75177984E-3
STARLINK-37352,2026-133S,2026-06-18T06:00:02.000160,16.09831616,.00005145,53.1593,317.3295,109.5467,22.6148,0,U,69524,999,208,-.15165393E-2,-.144853E-1,.73164081E-3
STARLINK-37490,2026-133T,2026-06-18T06:00:02.000160,16.10418162,.00005433,53.1592,317.3173,96.3145,41.7434,0,U,69525,999,208,-.14285212E-2,-.1418589E-1,.70932758E-3
STARLINK-37438,2026-133U,2026-06-18T06:00:02.000160,16.10082162,.00009041,53.1593,317.3242,96.2831,38.7175,0,U,69526,999,208,-.1481495E-2,-.1438727E-1,.72485935E-3
STARLINK-37484,2026-133V,2026-06-18T06:00:02.000160,16.10633880,.00005518,53.1592,317.3096,96.6563,45.1052,0,U,69527,999,208,-.13944059E-2,-.1404829E-1,.69864862E-3
STARLINK-37523,2026-133W,2026-06-18T06:00:02.000160,16.10820734,.00005124,53.1594,317.3040,107.3153,37.1181,0,U,69528,999,208,-.13597524E-2,-.1387268E-1,.68430992E-3
STARLINK-37369,2026-133X,2026-06-18T06:00:02.000160,16.11014179,.00007161,53.1591,317.2983,99.5138,47.6256,0,U,69529,999,208,-.1334465E-2,-.1379269E-1,.67876972E-3
STARLINK-37670,2026-133Y,2026-06-18T06:00:02.000160,16.11400748,.00010276,53.1591,317.2921,102.8162,47.5147,0,U,69530,999,208,-.1269441E-2,-.1346957E-1,.65310624E-3
STARLINK-37897,2026-133Z,2026-06-18T06:00:02.000160,16.11665688,.00009129,53.1591,317.2835,108.6341,45.6060,0,U,69531,999,203,-.12413222E-2,-.1340861E-1,.6499366E-3
STARLINK-37933,2026-133AA,2026-06-18T06:00:02.000160,16.12057853,.00008221,53.1591,317.2765,102.7888,54.6737,0,U,69532,999,203,-.11778699E-2,-.1306956E-1,.6232984E-3
STARLINK-37890,2026-133AB,2026-06-18T06:00:02.000160,16.12273748,.00007994,53.1593,317.2707,101.6930,58.5269,0,U,69533,999,203,-.1145393E-2,-.1289928E-1,.61022698E-3
STARLINK-37407,2026-133AC,2026-06-18T06:00:02.000160,16.12566279,.00009378,53.1591,317.2613,107.2734,57.2869,0,U,69534,999,208,-.11032919E-2,-.1267883E-1,.59355415E-3
STARLINK-37888,2026-133AD,2026-06-18T06:00:02.000160,16.12870940,.00006694,53.1593,317.2550,99.6198,67.9113,0,U,69535,999,203,-.10671106E-2,-.125234E-1,.58265587E-3
STARLINK-37889,2026-133AE,2026-06-18T06:00:02.000160,16.08922254,.00006771,53.1607,317.3541,78.9672,42.0551,0,U,69536,999,203,-.16823049E-2,-.1513593E-1,.78437631E-3
2026-134A,2026-134A,2026-06-16T17:23:06.260928,15.09200639,.00141542,97.7003,237.8242,273.9919,85.9691,0,U,69538,999,24,.41007631E-4,.587E-5,0
2026-134B,2026-134B,2026-06-16T17:22:52.264128,15.09360646,.00144875,97.6974,237.8233,276.4553,83.5026,0,U,69539,999,23,.83138065E-4,.1264E-4,0
2026-134C,2026-134C,2026-06-16T17:22:49.723968,15.09388935,.0013786,97.6988,237.8231,277.2768,82.6893,0,U,69540,999,23,.83187011E-4,.1265E-4,0
